STARLINK-34072          
1 64101U 25110F   25290.16352381  .00053538  00000+0  13372-2 0  9999
2 64101  53.1599 335.1624 0003789  30.4052 329.7172 15.39656677 23888
STARLINK-34104          
1 64102U 25110G   25289.44515152  .00046326  00000+0  11616-2 0  9992
2 64102  53.1596 338.5004 0001123  63.7866 296.3254 15.39607538 23777
STARLINK-34179          
1 64103U 25110H   25289.95982381  .00057092  00000+0  14252-2 0  9992
2 64103  53.1595 336.0230 0001288  87.4649 272.6503 15.39650201 23853
STARLINK-34176          
1 64104U 25110J   25289.43585929  .00018468  00000+0  47040-3 0  9999
2 64104  53.1604 338.4385 0001155  81.9749 278.1387 15.39630685 23771
STARLINK-33949          
1 64105U 25110K   25289.43552605  .00007016  00000+0  18523-3 0  9996
2 64105  53.1589 338.4375 0001089  94.6746 265.4384 15.39619899 23777
STARLINK-33970          
1 64106U 25110L   25290.14494316  .00056416  00000+0  14086-2 0  9998
2 64106  53.1597 335.0449 0001316  78.3054 281.8098 15.39648469 23887
STARLINK-33912          
1 64107U 25110M   25289.42657449  .00019629  00000+0  49925-3 0  9992
2 64107  53.1599 338.3819 0001254 104.6248 255.4895 15.39631873 23777
STARLINK-34156          
1 64108U 25110N   25289.42159014 -.00001645  00000+0 -31156-4 0  9997
2 64108  53.1598 338.3489 0001768  82.2249 277.8957 15.39609510 23772
STARLINK-34124          
1 64109U 25110P   25289.74186345  .00065167  00000+0  16250-2 0  9993
2 64109  53.1603 336.7925 0001432  78.6459 281.4706 15.39625339 23823
STARLINK-34145          
1 64110U 25110Q   25290.14527919  .00112129  00000+0  27669-2 0  9994
2 64110  53.1595 335.0458 0001261  88.4647 271.6502 15.39677481 23882
STARLINK-34148          
1 64111U 25110R   25289.61169661  .00052123  00000+0  13047-2 0  9993
2 64111  53.1597 337.4013 0001400  86.3766 273.7399 15.39607852 23806
STARLINK-34136          
1 64112U 25110S   25289.42192535  .00087697  00000+0  21812-2 0  9992
2 64112  53.1596 338.3502 0001324  92.1973 267.9183 15.39564482 23772
STARLINK-33839          
1 64113U 25110T   25289.60705267  .00038609  00000+0  97043-3 0  9994
2 64113  53.1597 337.3710 0001307  89.4852 270.6302 15.39616521 23800
STARLINK-34064          
1 64114U 25110U   25289.42623834  .00043563  00000+0  10930-2 0  9998
2 64114  53.1598 338.3785 0001191  78.7680 281.3458 15.39616537 23770
STARLINK-34067          
1 64115U 25110V   25289.40800284  .00045782  00000+0  11477-2 0  9995
2 64115  53.1607 338.2638 0001273  67.0322 293.0817 15.39619921 23772
STARLINK-34080          
1 64116U 25110W   25289.60240826  .00061992  00000+0  15472-2 0  9998
2 64116  53.1602 337.3418 0001395  86.9542 273.1623 15.39620913 23792
