[{"OBJECT_NAME":"STARLINK-34072","OBJECT_ID":"2025-110F","EPOCH":"2025-10-17T03:55:28.457184","MEAN_MOTION":15.39656677,"ECCENTRICITY":0.0003789,"INCLINATION":53.1599,"RA_OF_ASC_NODE":335.1624,"ARG_OF_PERICENTER":30.4052,"MEAN_ANOMALY":329.7172,"EPHEMERIS_TYPE":0,"CLASSIFICATION_TYPE":"U","NORAD_CAT_ID":64101,"ELEMENT_SET_NO":999,"REV_AT_EPOCH":2388,"BSTAR":0.0013372,"MEAN_MOTION_DOT":0.00053538,"MEAN_MOTION_DDOT":0},{"OBJECT_NAME":"STARLINK-34104","OBJECT_ID":"2025-110G","EPOCH":"2025-10-16T10:41:01.091328","MEAN_MOTION":15.39607538,"ECCENTRICITY":0.0001123,"INCLINATION":53.1596,"RA_OF_ASC_NODE":338.5004,"ARG_OF_PERICENTER":63.7866,"MEAN_ANOMALY":296.3254,"EPHEMERIS_TYPE":0,"CLASSIFICATION_TYPE":"U","NORAD_CAT_ID":64102,"ELEMENT_SET_NO":999,"REV_AT_EPOCH":2377,"BSTAR":0.0011616,"MEAN_MOTION_DOT":0.00046326,"MEAN_MOTION_DDOT":0},{"OBJECT_NAME":"STARLINK-34179","OBJECT_ID":"2025-110H","EPOCH":"2025-10-16T23:02:08.777184","MEAN_MOTION":15.39650201,"ECCENTRICITY":0.0001288,"INCLINATION":53.1595,"RA_OF_ASC_NODE":336.023,"ARG_OF_PERICENTER":87.4649,"MEAN_ANOMALY":272.6503,"EPHEMERIS_TYPE":0,"CLASSIFICATION_TYPE":"U","NORAD_CAT_ID":64103,"ELEMENT_SET_NO":999,"REV_AT_EPOCH":2385,"BSTAR":0.0014252,"MEAN_MOTION_DOT":0.00057092,"MEAN_MOTION_DDOT":0},{"OBJECT_NAME":"STARLINK-34176","OBJECT_ID":"2025-110J","EPOCH":"2025-10-16T10:27:38.242656","MEAN_MOTION":15.39630685,"ECCENTRICITY":0.0001155,"INCLINATION":53.1604,"RA_OF_ASC_NODE":338.4385,"ARG_OF_PERICENTER":81.9749,"MEAN_ANOMALY":278.1387,"EPHEMERIS_TYPE":0,"CLASSIFICATION_TYPE":"U","NORAD_CAT_ID":64104,"ELEMENT_SET_NO":999,"REV_AT_EPOCH":2377,"BSTAR":0.0004704,"MEAN_MOTION_DOT":0.00018468,"MEAN_MOTION_DDOT":0},{"OBJECT_NAME":"STARLINK-33949","OBJECT_ID":"2025-110K","EPOCH":"2025-10-16T10:27:09.450720","MEAN_MOTION":15.39619899,"ECCENTRICITY":0.0001089,"INCLINATION":53.1589,"RA_OF_ASC_NODE":338.4375,"ARG_OF_PERICENTER":94.6746,"MEAN_ANOMALY":265.4384,"EPHEMERIS_TYPE":0,"CLASSIFICATION_TYPE":"U","NORAD_CAT_ID":64105,"ELEMENT_SET_NO":999,"REV_AT_EPOCH":2377,"BSTAR":0.00018523,"MEAN_MOTION_DOT":7.016e-5,"MEAN_MOTION_DDOT":0},{"OBJECT_NAME":"STARLINK-33970","OBJECT_ID":"2025-110L","EPOCH":"2025-10-17T03:28:43.089024","MEAN_MOTION":15.39648469,"ECCENTRICITY":0.0001316,"INCLINATION":53.1597,"RA_OF_ASC_NODE":335.0449,"ARG_OF_PERICENTER":78.3054,"MEAN_ANOMALY":281.8098,"EPHEMERIS_TYPE":0,"CLASSIFICATION_TYPE":"U","NORAD_CAT_ID":64106,"ELEMENT_SET_NO":999,"REV_AT_EPOCH":2388,"BSTAR":0.0014086,"MEAN_MOTION_DOT":0.00056416,"MEAN_MOTION_DDOT":0},{"OBJECT_NAME":"STARLINK-33912","OBJECT_ID":"2025-110M","EPOCH":"2025-10-16T10:14:16.035936","MEAN_MOTION":15.39631873,"ECCENTRICITY":0.0001254,"INCLINATION":53.1599,"RA_OF_ASC_NODE":338.3819,"ARG_OF_PERICENTER":104.6248,"MEAN_ANOMALY":255.4895,"EPHEMERIS_TYPE":0,"CLASSIFICATION_TYPE":"U","NORAD_CAT_ID":64107,"ELEMENT_SET_NO":999,"REV_AT_EPOCH":2377,"BSTAR":0.00049925,"MEAN_MOTION_DOT":0.00019629,"MEAN_MOTION_DDOT":0},{"OBJECT_NAME":"STARLINK-34156","OBJECT_ID":"2025-110N","EPOCH":"2025-10-16T10:07:05.388096","MEAN_MOTION":15.3960951,"ECCENTRICITY":0.0001768,"INCLINATION":53.1598,"RA_OF_ASC_NODE":338.3489,"ARG_OF_PERICENTER":82.2249,"MEAN_ANOMALY":277.8957,"EPHEMERIS_TYPE":0,"CLASSIFICATION_TYPE":"U","NORAD_CAT_ID":64108,"ELEMENT_SET_NO":999,"REV_AT_EPOCH":2377,"BSTAR":-3.1156e-5,"MEAN_MOTION_DOT":-1.645e-5,"MEAN_MOTION_DDOT":0},{"OBJECT_NAME":"STARLINK-34124","OBJECT_ID":"2025-110P","EPOCH":"2025-10-16T17:48:17.002080","MEAN_MOTION":15.39625339,"ECCENTRICITY":0.0001432,"INCLINATION":53.1603,"RA_OF_ASC_NODE":336.7925,"ARG_OF_PERICENTER":78.6459,"MEAN_ANOMALY":281.4706,"EPHEMERIS_TYPE":0,"CLASSIFICATION_TYPE":"U","NORAD_CAT_ID":64109,"ELEMENT_SET_NO":999,"REV_AT_EPOCH":2382,"BSTAR":0.001625,"MEAN_MOTION_DOT":0.00065167,"MEAN_MOTION_DDOT":0},{"OBJECT_NAME":"STARLINK-34145","OBJECT_ID":"2025-110Q","EPOCH":"2025-10-17T03:29:12.122016","MEAN_MOTION":15.39677481,"ECCENTRICITY":0.0001261,"INCLINATION":53.1595,"RA_OF_ASC_NODE":335.0458,"ARG_OF_PERICENTER":88.4647,"MEAN_ANOMALY":271.6502,"EPHEMERIS_TYPE":0,"CLASSIFICATION_TYPE":"U","NORAD_CAT_ID":64110,"ELEMENT_SET_NO":999,"REV_AT_EPOCH":2388,"BSTAR":0.0027669,"MEAN_MOTION_DOT":0.00112129,"MEAN_MOTION_DDOT":0},{"OBJECT_NAME":"STARLINK-34148","OBJECT_ID":"2025-110R","EPOCH":"2025-10-16T14:40:50.587104","MEAN_MOTION":15.39607852,"ECCENTRICITY":0.00014,"INCLINATION":53.1597,"RA_OF_ASC_NODE":337.4013,"ARG_OF_PERICENTER":86.3766,"MEAN_ANOMALY":273.7399,"EPHEMERIS_TYPE":0,"CLASSIFICATION_TYPE":"U","NORAD_CAT_ID":64111,"ELEMENT_SET_NO":999,"REV_AT_EPOCH":2380,"BSTAR":0.0013047,"MEAN_MOTION_DOT":0.00052123,"MEAN_MOTION_DDOT":0},{"OBJECT_NAME":"STARLINK-34136","OBJECT_ID":"2025-110S","EPOCH":"2025-10-16T10:07:34.350240","MEAN_MOTION":15.39564482,"ECCENTRICITY":0.0001324,"INCLINATION":53.1596,"RA_OF_ASC_NODE":338.3502,"ARG_OF_PERICENTER":92.1973,"MEAN_ANOMALY":267.9183,"EPHEMERIS_TYPE":0,"CLASSIFICATION_TYPE":"U","NORAD_CAT_ID":64112,"ELEMENT_SET_NO":999,"REV_AT_EPOCH":2377,"BSTAR":0.0021812,"MEAN_MOTION_DOT":0.00087697,"MEAN_MOTION_DDOT":0},{"OBJECT_NAME":"STARLINK-33839","OBJECT_ID":"2025-110T","EPOCH":"2025-10-16T14:34:09.350688","MEAN_MOTION":15.39616521,"ECCENTRICITY":0.0001307,"INCLINATION":53.1597,"RA_OF_ASC_NODE":337.371,"ARG_OF_PERICENTER":89.4852,"MEAN_ANOMALY":270.6302,"EPHEMERIS_TYPE":0,"CLASSIFICATION_TYPE":"U","NORAD_CAT_ID":64113,"ELEMENT_SET_NO":999,"REV_AT_EPOCH":2380,"BSTAR":0.00097043,"MEAN_MOTION_DOT":0.00038609,"MEAN_MOTION_DDOT":0},{"OBJECT_NAME":"STARLINK-34064","OBJECT_ID":"2025-110U","EPOCH":"2025-10-16T10:13:46.992576","MEAN_MOTION":15.39616537,"ECCENTRICITY":0.0001191,"INCLINATION":53.1598,"RA_OF_ASC_NODE":338.3785,"ARG_OF_PERICENTER":78.768,"MEAN_ANOMALY":281.3458,"EPHEMERIS_TYPE":0,"CLASSIFICATION_TYPE":"U","NORAD_CAT_ID":64114,"ELEMENT_SET_NO":999,"REV_AT_EPOCH":2377,"BSTAR":0.001093,"MEAN_MOTION_DOT":0.00043563,"MEAN_MOTION_DDOT":0},{"OBJECT_NAME":"STARLINK-34067","OBJECT_ID":"2025-110V","EPOCH":"2025-10-16T09:47:31.445376","MEAN_MOTION":15.39619921,"ECCENTRICITY":0.0001273,"INCLINATION":53.1607,"RA_OF_ASC_NODE":338.2638,"ARG_OF_PERICENTER":67.0322,"MEAN_ANOMALY":293.0817,"EPHEMERIS_TYPE":0,"CLASSIFICATION_TYPE":"U","NORAD_CAT_ID":64115,"ELEMENT_SET_NO":999,"REV_AT_EPOCH":2377,"BSTAR":0.0011477,"MEAN_MOTION_DOT":0.00045782,"MEAN_MOTION_DDOT":0},{"OBJECT_NAME":"STARLINK-34080","OBJECT_ID":"2025-110W","EPOCH":"2025-10-16T14:27:28.073664","MEAN_MOTION":15.39620913,"ECCENTRICITY":0.0001395,"INCLINATION":53.1602,"RA_OF_ASC_NODE":337.3418,"ARG_OF_PERICENTER":86.9542,"MEAN_ANOMALY":273.1623,"EPHEMERIS_TYPE":0,"CLASSIFICATION_TYPE":"U","NORAD_CAT_ID":64116,"ELEMENT_SET_NO":999,"REV_AT_EPOCH":2379,"BSTAR":0.0015472,"MEAN_MOTION_DOT":0.00061992,"MEAN_MOTION_DDOT":0}]
